STRIX-4                 
1 60352U 24137A   26068.65404516  .00020530  00000+0  71820-3 0  9996
2 60352  43.0134 129.8162 0016840   5.2738 354.8289 15.29026223 88766
STARLINK-32384          
1 62146U 24224H   26068.26429507  .00032344  00000+0  11798-2 0  9993
2 62146  42.9979 160.6213 0001056 249.8965 110.1773 15.27577303 72419
